IRIDIUM 33 DEB          
1 34487U 97051GC  26062.75601171  .00000871  00000+0  25105-3 0  9993
2 34487  86.3484 337.5123 0029253 219.9300 168.9584 14.43370916894178
IRIDIUM 33 DEB          
1 34488U 97051GD  26053.04643645  .01238203  00000+0  64727-2 0  9993
2 34488  86.3081 269.5420 0004770  70.8002 289.3788 15.78089963903416
IRIDIUM 33 DEB          
1 34492U 97051GH  26062.63372245  .00014887  00000+0  50088-2 0  9992
2 34492  86.4708 301.8898 0186973 339.1012  48.8875 14.27603126862128
IRIDIUM 33 DEB          
1 34497U 97051GN  26062.34397545  .00002434  00000+0  94382-3 0  9996
2 34497  86.2804  17.9487 0082403  78.5013  72.8680 14.27752546880330
IRIDIUM 33 DEB          
1 34508U 97051GZ  26062.49372736  .00004218  00000+0  13292-2 0  9992
2 34508  86.3655  68.3662 0061766 268.6215  90.7907 14.39076456884706
IRIDIUM 33 DEB          
1 34521U 97051HN  26062.57833477  .00009692  00000+0  18222-2 0  9999
2 34521  86.3835 354.9306 0005092  22.5985 337.5451 14.64553271896556
IRIDIUM 33 DEB          
1 34525U 97051HS  26062.62651914  .00001745  00000+0  51404-3 0  9994
2 34525  86.3766  12.3063 0004461 154.6763 327.4481 14.43153603892546
IRIDIUM 33 DEB          
1 34529U 97051HW  26062.82510153  .00000884  00000+0  27050-3 0  9992
2 34529  86.3690   0.8460 0003384 317.5123  42.5814 14.40728752893098
IRIDIUM 33 DEB          
1 34538U 97051JF  26062.73996047  .00003665  00000+0  10751-2 0  9991
2 34538  86.2803 330.0795 0036581  57.6647   3.5028 14.43240198889242
IRIDIUM 33 DEB          
1 34540U 97051JH  26062.06277111  .00010546  00000+0  14813-2 0  9993
2 34540  86.3053 270.8228 0014424 249.0869 233.3046 14.77248539902063
IRIDIUM 33 DEB          
1 34648U 97051JZ  26062.51875569  .00007870  00000+0  36101-2 0  9993
2 34648  86.3888 249.2844 0176101  42.7162 318.7556 14.13320435861016
IRIDIUM 33 DEB          
1 34651U 97051KC  26062.13324882  .00007447  00000+0  27749-2 0  9990
2 34651  86.2787 106.3210 0131983 305.0977  53.7897 14.27173302870428
IRIDIUM 33 DEB          
1 34652U 97051KD  26062.69197610  .00004797  00000+0  92811-3 0  9997
2 34652  86.3295 303.9474 0029008  22.9599  32.4891 14.62914267896675
IRIDIUM 33 DEB          
1 34690U 97051KM  26062.31376163  .00002139  00000+0  48698-3 0  9992
2 34690  86.3815   1.9633 0012438  99.4454  54.0909 14.55432372892664
IRIDIUM 33 DEB          
1 34693U 97051KQ  26055.99059176  .01322234  00000+0  68577-2 0  9992
2 34693  86.2833 265.9163 0003939  44.5223 315.6368 15.78525000900614
IRIDIUM 33 DEB          
1 34696U 97051KT  26062.78494826  .00047274  00000+0  73206-2 0  9997
2 34696  86.1826 349.6290 0057889 253.5917 136.5957 14.71841744878621
